11112   14.06  0.15 K2555 300.96209  171.22721  228.29832   15.20458  0.2247931  0.19580923   2.9370676  0 MPO887445  2246  24 1995-2024 0.77 M-v 3Ek MPCLINUX   0000  (11112) Cagnoli            20240913
11113   13.55  0.15 K2555 118.03049  106.66234  286.24012   15.98588  0.1844498  0.20979219   2.8050665  0 E2025-DB9  2698  23 1994-2025 0.66 M-v 3Ek MPCLINUX   0000  (11113) 1995 WW3           20250221
11114   13.89  0.15 K2555 264.08423   64.71776  238.43543    9.90039  0.0417265  0.18167901   3.0874473  0 E2025-DE5  2460  26 1989-2025 0.70 M-v 3Ek MPCLINUX   0000  (11114) 1995 WV5           20250223
11115   14.10  0.15 K2555 141.37953   26.95877   38.90749    6.05994  0.1427566  0.18041093   3.1018979  0 MPO887445  2082  23 1995-2025 0.77 M-v 3Ek MPCLINUX   0000  (11115) Kariya             20250105
11116   14.39  0.15 K2555 307.74377   77.55241  149.67699    7.74128  0.2263651  0.30281396   2.1962686  0 E2025-DB9  4508  22 1955-2025 0.64 M-v 3Ek MPCLINUX   0000  (11116) 1996 EK            20250221
11117   15.14  0.15 K2555 226.99826  247.04945  137.76143    7.14038  0.1824985  0.30345219   2.1931880  0 MPO840974  2127  21 1990-2024 0.64 M-v 3Ek MPCLINUX   0000  (11117) Giuseppeolongo     20240527
11118   14.41  0.15 K2555 204.12058  204.16051    7.38723    3.03239  0.0832813  0.28006978   2.3136192  0 E2025-C22  3827  22 1991-2025 0.69 M-v 3Ek MPCLINUX   0000  (11118) Modra              20250202
11119   13.78  0.15 K2555 183.01825  137.80023  205.41891    4.13150  0.0970622  0.25840749   2.4411773  0 E2025-D75  6758  26 1939-2025 0.53 M-v 3Ek MPCLINUX   0000  (11119) Taro               20250220
11120   14.64  0.15 K2555 206.96152  322.30938  238.16061    3.10579  0.0855809  0.28393661   2.2925657  0 MPO887445  3311  22 1993-2025 0.64 M-v 3Ek MPCLINUX   0000  (11120) Pancaldi           20250113
11121   15.53  0.15 K2555 299.02514  131.55555  178.88225    3.44499  0.1497234  0.30101337   2.2050183  0 MPO887445  1965  22 1960-2025 0.80 M-v 3Ek MPCLINUX   0000  (11121) Malpighi           20250102
11122   14.52  0.15 K2555  44.01891  242.86211  313.13432    1.55193  0.1468357  0.26343473   2.4100203  0 MPO840974  3120  23 1991-2024 0.62 M-v 3Ek MPCLINUX   0000  (11122) Eliscolombini      20240503
11123   13.95  0.15 K2555 353.75688  196.35849    1.76668    1.64274  0.1183934  0.22574162   2.6713346  0 E2025-D47  3442  26 1990-2025 0.73 M-v 3Ek MPCLINUX   0000  (11123) Aliciaclaire       20250220
11124   14.75  0.15 K2555 148.68669  189.11745  135.86130    4.33687  0.1965273  0.28674191   2.2775885  0 E2025-D47  5146  23 1971-2025 0.60 M-v 3Ek MPCLINUX   0000  (11124) Mikulasek          20250220
11125   15.12  0.15 K2555 166.85614   45.29890  320.44969    4.76717  0.1823686  0.29107296   2.2549390  0 E2025-D47  2106  23 1971-2025 0.76 M-v 3Ek MPCLINUX   0000  (11125) 1996 TL10          20250220
11126   14.25  0.15 K2555 248.70747  268.16584   84.70975    9.85929  0.1425397  0.22232361   2.6986444  0 E2024-J18  2319  23 1994-2024 0.62 M-v 3Ek MPCLINUX   0000  (11126) Dolecek            20240501
11127   14.24  0.15 K2555 201.68341  306.99624   85.41717    5.66233  0.1601725  0.29625701   2.2285564  0 E2025-DE5  2847  22 1986-2025 0.73 M-v 3Ek MPCLINUX   0000  (11127) Hagi               20250223
11128   14.52  0.15 K2555 337.81540  198.52559   51.62080    2.97976  0.1703532  0.26259862   2.4151332  0 E2025-DK1  2943  24 1988-2025 0.75 M-v 3Ek MPCLINUX   0000  (11128) Ostravia           20250224
11129   13.13  0.15 K2555 172.38473    0.33675  235.46419   14.01567  0.0549985  0.24038852   2.5616919  0 E2025-CG0  3883  23 1982-2025 0.65 M-v 3Ek MPCLINUX   0000  (11129) Hayachine          20250210
11130   14.70  0.15 K2555 253.17261  162.29019  216.10407   12.86715  0.1565147  0.26444824   2.4038586  0 MPO840974  2399  22 1981-2024 0.62 M-v 3Ek MPCLINUX   0007  (11130) 1996 VA30          20240606
11131   14.04  0.15 K2555 155.44763  129.79695  247.97942    3.43476  0.1923120  0.28953208   2.2629324  0 E2025-D47  3482  25 1955-2025 0.71 M-v 3Ek MPCLINUX   0000  (11131) 1996 VO30          20250220
11132   12.84  0.15 K2555 294.62346  296.29432  236.73489    4.20394  0.1060886  0.17605495   3.1528542  0 E2025-D12  3674  25 1993-2025 0.70 M-v 3Ek MPCLINUX   0000  (11132) Horne              20250216
11133   13.76  0.15 K2555 242.87502  163.03505   82.99779   10.70080  0.0549278  0.21290423   2.7776649  0 E2025-D12  3767  24 1989-2025 0.65 M-v 3Ek MPCLINUX   0000  (11133) Kumotori           20250215
11134   14.38  0.15 K2555   8.08169  125.57333  179.71800    1.88514  0.0224129  0.19831853   2.9122401  0 MPO840974  2526  25 1991-2024 0.77 M-v 3Ek MPCLINUX   0000  (11134) Ceske Budejovice   20240707
11135   13.91  0.15 K2555 110.76932  120.27357  127.95451    1.66963  0.1050055  0.19832630   2.9121641  0 E2024-UB5  3006  24 1993-2024 0.75 M-v 3Ek MPCLINUX   0000  (11135) Ryokami            20241024
11136   14.12  0.15 K2555 333.10961  266.69896   87.90167    7.52855  0.1505885  0.26959907   2.3731424  0 MPO840974  3134  22 1994-2024 0.71 M-v 3Ek MPCLINUX   0000  (11136) Shirleymarinus     20240712
11137   13.68  0.15 K2555 272.60003  160.77718  178.61863    3.86069  0.2314106  0.19121877   2.9838870  0 E2025-DG3  4562  27 1949-2025 0.61 M-v 3Ek MPCLINUX   0000  (11137) Yarigatake         20250224
11138   14.20  0.15 K2555  49.47462   67.64798  279.83886    7.92699  0.1656927  0.23824348   2.5770452  0 MPO887445  3264  23 1987-2025 0.68 M-v 3Ek MPCLINUX   0000  (11138) Hotakadake         20250113
11139   13.76  0.15 K2555 106.05532   84.42717  287.62528    4.73209  0.2235139  0.24630054   2.5205335  0 E2025-DE5  3072  23 1991-2025 0.70 M-v 3Ek MPCLINUX   0000  (11139) Qingdaoligong      20250222
11140   12.80  0.15 K2555 204.34714  252.15684  113.94164   12.00871  0.1480081  0.18417463   3.0594934  0 E2025-D12  3625  27 1950-2025 0.72 M-v 3Ek MPCLINUX   0000  (11140) Yakedake           20250214
11141   14.28  0.15 K2555  34.75693  210.74521  113.60933   13.04442  0.3274736  0.23543336   2.5975109  0 MPO887446  2226  23 1982-2024 0.75 M-v 3Ek MPCLINUX   0000  (11141) Jindrawalter       20241002
11142   13.89  0.15 K2555   1.55404  193.93815   94.93543   10.74581  0.0592413  0.19057088   2.9906461  0 MPO840974  2762  23 1989-2024 0.68 M-v 3Ek MPCLINUX   0000  (11142) Facchini           20240711
11143   13.94  0.15 K2555 158.62411  121.96224  335.35508    0.70963  0.0616739  0.18654559   3.0335144  0 MPO887446  2309  23 1992-2024 0.76 M-v 3Ek MPCLINUX   0000  (11143) 1997 BF7           20240609
11144   14.33  0.15 K2555 310.19923  270.57784  136.62074    3.26006  0.0687494  0.19718811   2.9233595  0 E2024-TQ2  2287  25 1992-2024 0.76 M-v 3Ek MPCLINUX   0000  (11144) Radiocommunicata   20240829
11145   13.93  0.15 K2555 223.32181  350.67813  276.98258    5.12242  0.1407453  0.30086163   2.2057596  0 E2025-D12  4589  22 1974-2025 0.64 M-v 3Ek MPCLINUX   0000  (11145) Emanuelli          20250217
11146   13.03  0.15 K2555 100.81604  161.97356   82.23810    3.19511  0.0162554  0.20647121   2.8350651  0 MPO887446  3437  24 1991-2024 0.69 M-v 3Ek MPCLINUX   0000  (11146) Kirigamine         20241121
11147   12.97  0.15 K2555  40.80047  262.20152  101.22712    7.40524  0.1444766  0.17876876   3.1208648  0 E2025-DB9  4021  26 1989-2025 0.67 M-v 3Ek MPCLINUX   0000  (11147) Delmas             20250218
11148   14.46  0.15 K2555   5.10891   81.81482   97.32538    3.88137  0.1141247  0.25732057   2.4480468  0 E2025-DB9  2467  23 1981-2025 0.75 M-v 3Ek MPCLINUX   0000  (11148) Einhardress        20250220
11149   14.21  0.15 K2555  37.63869  209.65291  258.82568    5.05323  0.0574747  0.25834559   2.4415672  0 E2025-DB9  3008  22 1983-2025 0.71 M-v 3Ek MPCLINUX   0000  (11149) Tateshina          20250221
11150   14.56  0.15 K2555 358.97713   53.25517   62.05734    2.93902  0.1479344  0.25739852   2.4475525  0 E2025-D12  2960  23 1978-2025 0.71 M-v 3Ek MPCLINUX   0000  (11150) Bragg              20250216
11151   12.47  0.15 K2555 207.46973  165.44065  269.92872   12.14956  0.1179309  0.23450873   2.6043341  0 MPO840974  3714  24 1983-2024 0.69 M-v 3Ek MPCLINUX   0000  (11151) Oodaigahara        20240710
11152   14.60  0.15 K2555 215.72010   61.27296  323.15754    3.58338  0.2393064  0.30438596   2.1887003  0 MPO887446  2483  22 1974-2025 0.74 M-v 3Ek MPCLINUX   0005  (11152) Oomine             20250102
11153   13.82  0.15 K2555 358.86832  118.97293  312.71077    6.84876  0.2111566  0.21381920   2.7697352  0 E2025-DG3  2829  23 1987-2025 0.73 M-v 3Ek MPCLINUX   0000  (11153) 1997 YB10          20250222
11154   13.75  0.15 K2555  95.82116  318.80438  329.46809    5.14567  0.1083775  0.27955060   2.3164829  0 MPO887446  4663  23 1984-2024 0.65 M-v 3Ek MPCLINUX   0000  (11154) Kobushi            20241228
11155   13.68  0.15 K2555 280.76938  266.48604  258.42999    5.42852  0.1157953  0.28444762   2.2898191  0 E2025-D28  5094  23 1967-2025 0.60 M-v 3Ek MPCLINUX   0000  (11155) Kinpu              20250216
11156   14.07  0.15 K2555 295.18463   47.78461  330.36139    1.13497  0.0735348  0.20001540   2.8957458  0 MPO887446  2640  25 1991-2024 0.75 M-v 3Ek MPCLINUX   0000  (11156) Al-Khwarismi       20240707
11157   13.29  0.15 K2555  30.86416  305.12256  118.33867    4.11207  0.1836131  0.18022353   3.1040477  0 E2025-D12  3375  26 1969-2025 0.74 M-v 3Ek MPCLINUX   0000  (11157) 1998 AJ            20250216
11158   14.41  0.15 K2555 250.91172   42.92105    2.60391    2.86960  0.0594227  0.30302193   2.1952636  0 MPO840974  3057  22 1986-2024 0.71 M-v 3Ek MPCLINUX   0000  (11158) Cirou              20240708
11159   15.06  0.15 K2555 335.92074  287.32281   68.94667    5.45584  0.2290667  0.27631307   2.3345424  0 MPO840974  1747  24 1975-2024 0.80 M-v 3Ek MPCLINUX   0000  (11159) Mizugaki           20240613
11160   14.10  0.15 K2555 316.24602   63.44156  183.24214    1.37431  0.0849552  0.29566252   2.2315427  0 E2025-DB9  3566  24 1949-2025 0.71 M-v 3Ek MPCLINUX   0000  (11160) 1998 BH7           20250220
